SatCatId,ObjectName,LaunchYear,OrbitalPeriod,LaunchMass,StatusCode,Inclination,Status,UcsData,OrbitClassEstimated,LaunchSiteCountry,Owner,UseType,Purpose,LaunchVehicleClass,TLE1,TLE2,MeanMotion,Eccentricity,OrbitClass
54803,STARLINK-5430,2022,94.88,-1.0,+,53.21,Active,0,LEO,USA,USA,Unknown,Unknown,Falcon,1 54803U 22175AX  23028.25001157 -.01228289  00000+0 -69048-1 0  9994,2 54803  53.2150 105.6501 0001406  93.7723  26.6290 15.15966080  6190,15.1596608,0.0001406,LEO
54804,STARLINK-5422,2022,91.53,-1.0,+,53.22,Active,0,LEO,USA,USA,Unknown,Unknown,Falcon,1 54804U 22175AY  23027.50518325  .00000444  00000+0  75756-5 0  9997,2 54804  53.2167 104.7357 0001268  77.6505 282.4657 15.73209018  8302,15.73209018,0.0001268,LEO
54805,STARLINK-5417,2022,91.53,-1.0,+,53.22,Active,0,LEO,USA,USA,Unknown,Unknown,Falcon,1 54805U 22175AZ  23027.37823950 -.00000539  00000+0  58269-6 0  9993,2 54805  53.2172 105.3624 0001522  75.4962 284.6227 15.73202226  8287,15.73202226,0.0001522,LEO
54806,STARLINK-5412,2022,91.53,-1.0,+,53.22,Active,0,LEO,USA,USA,Unknown,Unknown,Falcon,1 54806U 22175BA  23028.07671969  .00002244  00000+0  20395-4 0  9994,2 54806  53.2163 101.9010 0001364 117.5335 242.5824 15.73211002  6236,15.73211002,0.0001364,LEO
54807,STARLINK-5410,2022,91.53,-1.0,+,53.21,Active,0,LEO,USA,USA,Unknown,Unknown,Falcon,1 54807U 22175BB  23027.50507504  .00009165  00000+0  69634-4 0  9993,2 54807  53.2148 104.7328 0001322 102.6794 257.4374 15.73203234  8304,15.73203234,0.0001322,LEO
54808,STARLINK-5413,2022,91.53,-1.0,+,53.22,Active,0,LEO,USA,USA,Unknown,Unknown,Falcon,1 54808U 22175BC  23027.50476355  .00000227  00000+0  60285-5 0  9997,2 54808  53.2179 104.7314 0001162  73.6998 286.4150 15.73204668  8305,15.73204668,0.0001162,LEO
54809,STARLINK-5414,2022,91.53,-1.0,+,53.22,Active,0,LEO,USA,USA,Unknown,Unknown,Falcon,1 54809U 22175BD  23027.50486900  .00000233  00000+0  60743-5 0  9991,2 54809  53.2155 104.7312 0001398  69.3924 290.7246 15.73205703  8305,15.73205703,0.0001398,LEO
54810,STARLINK-5408,2022,91.53,-1.0,+,53.22,Active,0,LEO,USA,USA,Unknown,Unknown,Falcon,1 54810U 22175BE  23028.07640276 -.00000157  00000+0  32994-5 0  9997,2 54810  53.2162 101.8997 0001253 104.7686 255.3473 15.73216436  6235,15.73216436,0.0001253,LEO
54811,STARLINK-5424,2022,91.53,-1.0,+,53.22,Active,0,LEO,USA,USA,Unknown,Unknown,Falcon,1 54811U 22175BF  23028.20335430  .00002054  00000+0  19035-4 0  9993,2 54811  53.2156 101.2681 0001136 110.0454 250.0688 15.73212083  6252,15.73212083,0.0001136,LEO
54816,XW-4 (CAS-10),2021,91.62,-1.0,+,41.48,Active,0,LEO,PRC,China,Unknown,Unknown,Unknown,1 54816U 21035C   23028.40083922  .00173317  00000+0  12469-2 0  9993,2 54816  41.4769 286.2524 0011786 214.4249 145.5832 15.72174776  6354,15.72174776,0.0011786,LEO
54818,GAOFEN 11-4,2022,93.25,-1.0,+,97.27,Active,0,LEO,PRC,China,Unknown,Unknown,Unknown,1 54818U 22176A   23028.19573209  .00170288  86039-5  72251-3 0  9992,2 54818  97.2702 169.0602 0283910  75.8198  45.1668 15.44523789  4901,15.44523789,0.028391,LEO
54820,STARLINK-5382,2022,93.56,-1.0,+,43.0,Active,0,LEO,USA,USA,Unknown,Unknown,Falcon,1 54820U 22177A   23027.91667824 -.01160243  00000+0 -32977-1 0  9992,2 54820  42.9991 192.9430 0001522 276.0565  77.3083 15.38306426  1304,15.38306426,0.0001522,LEO
54821,STARLINK-5385,2022,93.54,-1.0,+,43.0,Active,0,LEO,USA,USA,Unknown,Unknown,Falcon,1 54821U 22177B   23027.91667824 -.01160255  00000+0 -32656-1 0  9990,2 54821  42.9990 192.9298 0001515 275.3775  83.7086 15.38603749  1305,15.38603749,0.0001515,LEO
54822,STARLINK-5101,2022,93.48,-1.0,+,43.0,Active,0,LEO,USA,USA,Unknown,Unknown,Falcon,1 54822U 22177C   23027.91667824 -.01166795  00000+0 -31779-1 0  9991,2 54822  42.9988 192.8715 0001542 281.5144 101.3999 15.39612429  1301,15.39612429,0.0001542,LEO
54823,STARLINK-5106,2022,93.53,-1.0,+,43.0,Active,0,LEO,USA,USA,Unknown,Unknown,Falcon,1 54823U 22177D   23027.91667824 -.01167599  00000+0 -32765-1 0  9991,2 54823  42.9989 192.9222 0001572 280.2012  82.0630 15.38711875  1301,15.38711875,0.0001572,LEO
54824,STARLINK-4643,2022,93.52,-1.0,+,43.0,Active,0,LEO,USA,USA,Unknown,Unknown,Falcon,1 54824U 22177E   23027.91667824 -.01165807  00000+0 -32523-1 0  9994,2 54824  42.9992 192.9108 0001539 276.4056  90.0225 15.38885654  1303,15.38885654,0.0001539,LEO
54825,STARLINK-4801,2022,93.5,-1.0,+,43.0,Active,0,LEO,USA,USA,Unknown,Unknown,Falcon,1 54825U 22177F   23027.91667824 -.01162500  00000+0 -31990-1 0  9999,2 54825  42.9984 192.8916 0001500 275.5017  99.8600 15.39291362  1308,15.39291362,0.00015,LEO
54826,STARLINK-5107,2022,93.48,-1.0,+,43.0,Active,0,LEO,USA,USA,Unknown,Unknown,Falcon,1 54826U 22177G   23027.91667824 -.01161600  00000+0 -31655-1 0  9998,2 54826  42.9991 192.8754 0001535 281.5954  99.3392 15.39583035  1306,15.39583035,0.0001535,LEO
54827,STARLINK-5383,2022,93.45,-1.0,+,43.0,Active,0,LEO,USA,USA,Unknown,Unknown,Falcon,1 54827U 22177H   23027.91667824 -.01162485  00000+0 -31208-1 0  9995,2 54827  42.9978 192.8530 0001513 280.6630 111.0732 15.40036066  1300,15.40036066,0.0001513,LEO
54828,STARLINK-5381,2022,93.43,-1.0,+,43.0,Active,0,LEO,USA,USA,Unknown,Unknown,Falcon,1 54828U 22177J   23027.91667824 -.01160589  00000+0 -30831-1 0  9990,2 54828  42.9984 192.8377 0001483 283.6834 113.6188 15.40347338  1302,15.40347338,0.0001483,LEO
54829,STARLINK-5380,2022,93.51,-1.0,+,43.0,Active,0,LEO,USA,USA,Unknown,Unknown,Falcon,1 54829U 22177K   23027.91667824 -.01160983  00000+0 -32183-1 0  9991,2 54829  42.9988 192.9019 0001518 279.5804  91.0298 15.39066323  1302,15.39066323,0.0001518,LEO
54830,STARLINK-5394,2022,93.36,-1.0,+,43.0,Active,0,LEO,USA,USA,Unknown,Unknown,Falcon,1 54830U 22177L   23027.91667824 -.01162215  00000+0 -29688-1 0  9999,2 54830  42.9991 192.7936 0001492 283.0867 132.4296 15.41520899  1308,15.41520899,0.0001492,LEO
54831,STARLINK-5395,2022,93.46,-1.0,+,43.0,Active,0,LEO,USA,USA,Unknown,Unknown,Falcon,1 54831U 22177M   23027.91667824 -.01163333  00000+0 -31408-1 0  9995,2 54831  42.9986 192.8597 0001521 275.0780 112.9313 15.39868026  1302,15.39868026,0.0001521,LEO
54832,STARLINK-5393,2022,91.64,-1.0,+,43.0,Active,0,LEO,USA,USA,Unknown,Unknown,Falcon,1 54832U 22177N   23027.51102006  .00001098  00000+0  11826-4 0  9999,2 54832  42.9989 193.2758 0002120 264.2153  95.8473 15.71355180  5881,15.7135518,0.000212,LEO
54833,STARLINK-5391,2022,93.38,-1.0,+,43.0,Active,0,LEO,USA,USA,Unknown,Unknown,Falcon,1 54833U 22177P   23027.91667824 -.01162986  00000+0 -30103-1 0  9991,2 54833  42.9998 192.8046 0001486 280.2385 129.4683 15.41129226  1303,15.41129226,0.0001486,LEO
54834,STARLINK-5386,2022,93.33,-1.0,+,43.0,Active,0,LEO,USA,USA,Unknown,Unknown,Falcon,1 54834U 22177Q   23027.91667824 -.01164661  00000+0 -29221-1 0  9993,2 54834  43.0001 192.7734 0001510 283.6156 139.3897 15.42059654  1300,15.42059654,0.000151,LEO
54835,STARLINK-5389,2022,93.42,-1.0,+,43.0,Active,0,LEO,USA,USA,Unknown,Unknown,Falcon,1 54835U 22177R   23027.91667824 -.01163989  00000+0 -30782-1 0  9990,2 54835  42.9990 192.8278 0001535 282.2263 118.4206 15.40490593  1302,15.40490593,0.0001535,LEO
54836,STARLINK-5384,2022,93.32,-1.0,+,43.0,Active,0,LEO,USA,USA,Unknown,Unknown,Falcon,1 54836U 22177S   23027.91667824 -.01165910  00000+0 -29185-1 0  9992,2 54836  42.9997 192.7635 0001492 283.8227 143.1134 15.42131047  1308,15.42131047,0.0001492,LEO
54837,STARLINK-5369,2022,93.32,-1.0,+,43.0,Active,0,LEO,USA,USA,Unknown,Unknown,Falcon,1 54837U 22177T   23027.91667824 -.01165315  00000+0 -29180-1 0  9997,2 54837  42.9993 192.7696 0001502 285.1696 140.0651 15.42119506  1305,15.42119506,0.0001502,LEO
54838,STARLINK-5372,2022,93.3,-1.0,+,43.0,Active,0,LEO,USA,USA,Unknown,Unknown,Falcon,1 54838U 22177U   23027.91667824 -.01164546  00000+0 -28730-1 0  9993,2 54838  43.0008 192.7435 0001459 283.7422 150.5090 15.42558031  1301,15.42558031,0.0001459,LEO
54839,STARLINK-5110,2022,93.28,-1.0,+,43.0,Active,0,LEO,USA,USA,Unknown,Unknown,Falcon,1 54839U 22177V   23027.91667824 -.01165156  00000+0 -28398-1 0  9992,2 54839  42.9991 192.7317 0001392 273.3763 167.2929 15.42918110  1303,15.4291811,0.0001392,LEO
54840,STARLINK-5368,2022,93.25,-1.0,+,43.0,Active,0,LEO,USA,USA,Unknown,Unknown,Falcon,1 54840U 22177W   23027.91667824 -.01165887  00000+0 -28011-1 0  9997,2 54840  43.0008 192.7153 0001438 276.8001 168.9494 15.43341498  1303,15.43341498,0.0001438,LEO
54841,STARLINK-4659,2022,93.31,-1.0,+,43.0,Active,0,LEO,USA,USA,Unknown,Unknown,Falcon,1 54841U 22177X   23027.91667824 -.01163759  00000+0 -28956-1 0  9992,2 54841  43.0005 192.7526 0001439 275.1307 155.2630 15.42304748  1304,15.42304748,0.0001439,LEO
54842,STARLINK-5387,2022,93.11,-1.0,+,43.0,Active,0,LEO,USA,USA,Unknown,Unknown,Falcon,1 54842U 22177Y   23027.91667824 -.01164335  00000+0 -27710-1 0  9991,2 54842  42.9996 192.7051 0001416 279.7506 171.4274 15.43615833  1306,15.43615833,0.0001416,LEO
54843,STARLINK-5304,2022,93.29,-1.0,+,43.0,Active,0,LEO,USA,USA,Unknown,Unknown,Falcon,1 54843U 22177Z   23027.91667824 -.01164184  00000+0 -28543-1 0  9999,2 54843  43.0005 192.7356 0001431 280.9578 156.4589 15.42740848  1304,15.42740848,0.0001431,LEO
54844,STARLINK-5388,2022,93.2,-1.0,+,43.0,Active,0,LEO,USA,USA,Unknown,Unknown,Falcon,1 54844U 22177AA  23027.91667824 -.01031049  00000+0 -24082-1 0  9997,2 54844  42.9976 192.5016 0001360 276.0128 256.5714 15.44279922  1303,15.44279922,0.000136,LEO
54845,STARLINK-5082,2022,93.24,-1.0,+,43.0,Active,0,LEO,USA,USA,Unknown,Unknown,Falcon,1 54845U 22177AB  23027.91667824 -.01164228  00000+0 -27820-1 0  9997,2 54845  43.0007 192.7082 0001410 276.5484 172.1500 15.43496767  1305,15.43496767,0.000141,LEO
54846,STARLINK-5360,2022,93.18,-1.0,+,43.0,Active,0,LEO,USA,USA,Unknown,Unknown,Falcon,1 54846U 22177AC  23027.91667824 -.01168157  00000+0 -26992-1 0  9992,2 54846  43.0012 192.6850 0001389 276.2735 182.5507 15.44487931  4944,15.44487931,0.0001389,LEO
